<?xml version="1.0" encoding="UTF-8"?>
<ndm xmlns:xsi="http://www.w3.org/2001/XMLSchema-instance" xsi:noNamespaceSchemaLocation="https://sanaregistry.org/r/ndmxml_unqualified/ndmxml-2.0.0-master-2.0.xsd">
<omm id="CCSDS_OMM_VERS" version="2.0">
<header><CREATION_DATE/><ORIGINATOR/></header><body><segment><metadata><OBJECT_NAME>ORBCOMM FM20</OBJECT_NAME><OBJECT_ID>1998-046D</OBJECT_ID><CENTER_NAME>EARTH</CENTER_NAME><REF_FRAME>TEME</REF_FRAME><TIME_SYSTEM>UTC</TIME_SYSTEM><MEAN_ELEMENT_THEORY>SGP4</MEAN_ELEMENT_THEORY></metadata><data><meanElements><EPOCH>2024-09-05T01:41:53.312352</EPOCH><MEAN_MOTION>14.35735060</MEAN_MOTION><ECCENTRICITY>.0000381</ECCENTRICITY><INCLINATION>44.9933</INCLINATION><RA_OF_ASC_NODE>90.1946</RA_OF_ASC_NODE><ARG_OF_PERICENTER>172.5155</ARG_OF_PERICENTER><MEAN_ANOMALY>187.5698</MEAN_ANOMALY></meanElements><tleParameters><EPHEMERIS_TYPE>0</EPHEMERIS_TYPE><CLASSIFICATION_TYPE>U</CLASSIFICATION_TYPE><NORAD_CAT_ID>25416</NORAD_CAT_ID><ELEMENT_SET_NO>999</ELEMENT_SET_NO><REV_AT_EPOCH>36326</REV_AT_EPOCH><BSTAR>.14728E-2</BSTAR><MEAN_MOTION_DOT>.4156E-4</MEAN_MOTION_DOT><MEAN_MOTION_DDOT>0</MEAN_MOTION_DDOT></tleParameters></data></segment></body></omm>
<omm id="CCSDS_OMM_VERS" version="2.0">
<header><CREATION_DATE/><ORIGINATOR/></header><body><segment><metadata><OBJECT_NAME>ORBCOMM FM16</OBJECT_NAME><OBJECT_ID>1998-046E</OBJECT_ID><CENTER_NAME>EARTH</CENTER_NAME><REF_FRAME>TEME</REF_FRAME><TIME_SYSTEM>UTC</TIME_SYSTEM><MEAN_ELEMENT_THEORY>SGP4</MEAN_ELEMENT_THEORY></metadata><data><meanElements><EPOCH>2024-09-05T20:18:42.187104</EPOCH><MEAN_MOTION>14.36909304</MEAN_MOTION><ECCENTRICITY>.0003151</ECCENTRICITY><INCLINATION>44.9930</INCLINATION><RA_OF_ASC_NODE>81.3341</RA_OF_ASC_NODE><ARG_OF_PERICENTER>296.5222</ARG_OF_PERICENTER><MEAN_ANOMALY>63.5302</MEAN_ANOMALY></meanElements><tleParameters><EPHEMERIS_TYPE>0</EPHEMERIS_TYPE><CLASSIFICATION_TYPE>U</CLASSIFICATION_TYPE><NORAD_CAT_ID>25417</NORAD_CAT_ID><ELEMENT_SET_NO>999</ELEMENT_SET_NO><REV_AT_EPOCH>36354</REV_AT_EPOCH><BSTAR>.19898E-2</BSTAR><MEAN_MOTION_DOT>.5805E-4</MEAN_MOTION_DOT><MEAN_MOTION_DDOT>0</MEAN_MOTION_DDOT></tleParameters></data></segment></body></omm>
<omm id="CCSDS_OMM_VERS" version="2.0">
<header><CREATION_DATE/><ORIGINATOR/></header><body><segment><metadata><OBJECT_NAME>ORBCOMM FM15</OBJECT_NAME><OBJECT_ID>1998-046F</OBJECT_ID><CENTER_NAME>EARTH</CENTER_NAME><REF_FRAME>TEME</REF_FRAME><TIME_SYSTEM>UTC</TIME_SYSTEM><MEAN_ELEMENT_THEORY>SGP4</MEAN_ELEMENT_THEORY></metadata><data><meanElements><EPOCH>2024-09-05T01:28:54.488064</EPOCH><MEAN_MOTION>14.36597569</MEAN_MOTION><ECCENTRICITY>.0002792</ECCENTRICITY><INCLINATION>44.9960</INCLINATION><RA_OF_ASC_NODE>89.3978</RA_OF_ASC_NODE><ARG_OF_PERICENTER>297.7938</ARG_OF_PERICENTER><MEAN_ANOMALY>62.2627</MEAN_ANOMALY></meanElements><tleParameters><EPHEMERIS_TYPE>0</EPHEMERIS_TYPE><CLASSIFICATION_TYPE>U</CLASSIFICATION_TYPE><NORAD_CAT_ID>25418</NORAD_CAT_ID><ELEMENT_SET_NO>999</ELEMENT_SET_NO><REV_AT_EPOCH>36321</REV_AT_EPOCH><BSTAR>.17463E-2</BSTAR><MEAN_MOTION_DOT>.5044E-4</MEAN_MOTION_DOT><MEAN_MOTION_DDOT>0</MEAN_MOTION_DDOT></tleParameters></data></segment></body></omm>
<omm id="CCSDS_OMM_VERS" version="2.0">
<header><CREATION_DATE/><ORIGINATOR/></header><body><segment><metadata><OBJECT_NAME>ORBCOMM FM14</OBJECT_NAME><OBJECT_ID>1998-046G</OBJECT_ID><CENTER_NAME>EARTH</CENTER_NAME><REF_FRAME>TEME</REF_FRAME><TIME_SYSTEM>UTC</TIME_SYSTEM><MEAN_ELEMENT_THEORY>SGP4</MEAN_ELEMENT_THEORY></metadata><data><meanElements><EPOCH>2024-09-05T20:02:43.456416</EPOCH><MEAN_MOTION>14.36830814</MEAN_MOTION><ECCENTRICITY>.0001792</ECCENTRICITY><INCLINATION>44.9951</INCLINATION><RA_OF_ASC_NODE>84.6657</RA_OF_ASC_NODE><ARG_OF_PERICENTER>277.6482</ARG_OF_PERICENTER><MEAN_ANOMALY>82.4162</MEAN_ANOMALY></meanElements><tleParameters><EPHEMERIS_TYPE>0</EPHEMERIS_TYPE><CLASSIFICATION_TYPE>U</CLASSIFICATION_TYPE><NORAD_CAT_ID>25419</NORAD_CAT_ID><ELEMENT_SET_NO>999</ELEMENT_SET_NO><REV_AT_EPOCH>36350</REV_AT_EPOCH><BSTAR>.17688E-2</BSTAR><MEAN_MOTION_DOT>.5136E-4</MEAN_MOTION_DOT><MEAN_MOTION_DDOT>0</MEAN_MOTION_DDOT></tleParameters></data></segment></body></omm>
<omm id="CCSDS_OMM_VERS" version="2.0">
<header><CREATION_DATE/><ORIGINATOR/></header><body><segment><metadata><OBJECT_NAME>ORBCOMM FM13</OBJECT_NAME><OBJECT_ID>1998-046H</OBJECT_ID><CENTER_NAME>EARTH</CENTER_NAME><REF_FRAME>TEME</REF_FRAME><TIME_SYSTEM>UTC</TIME_SYSTEM><MEAN_ELEMENT_THEORY>SGP4</MEAN_ELEMENT_THEORY></metadata><data><meanElements><EPOCH>2024-09-05T19:20:00.307968</EPOCH><MEAN_MOTION>14.35989928</MEAN_MOTION><ECCENTRICITY>.0004079</ECCENTRICITY><INCLINATION>44.9966</INCLINATION><RA_OF_ASC_NODE>90.3929</RA_OF_ASC_NODE><ARG_OF_PERICENTER>281.9377</ARG_OF_PERICENTER><MEAN_ANOMALY>78.1013</MEAN_ANOMALY></meanElements><tleParameters><EPHEMERIS_TYPE>0</EPHEMERIS_TYPE><CLASSIFICATION_TYPE>U</CLASSIFICATION_TYPE><NORAD_CAT_ID>25420</NORAD_CAT_ID><ELEMENT_SET_NO>999</ELEMENT_SET_NO><REV_AT_EPOCH>36346</REV_AT_EPOCH><BSTAR>.16705E-2</BSTAR><MEAN_MOTION_DOT>.4759E-4</MEAN_MOTION_DOT><MEAN_MOTION_DDOT>0</MEAN_MOTION_DDOT></tleParameters></data></segment></body></omm>
<omm id="CCSDS_OMM_VERS" version="2.0">
<header><CREATION_DATE/><ORIGINATOR/></header><body><segment><metadata><OBJECT_NAME>ORBCOMM FM21</OBJECT_NAME><OBJECT_ID>1998-053A</OBJECT_ID><CENTER_NAME>EARTH</CENTER_NAME><REF_FRAME>TEME</REF_FRAME><TIME_SYSTEM>UTC</TIME_SYSTEM><MEAN_ELEMENT_THEORY>SGP4</MEAN_ELEMENT_THEORY></metadata><data><meanElements><EPOCH>2024-09-05T06:39:24.664320</EPOCH><MEAN_MOTION>14.35851466</MEAN_MOTION><ECCENTRICITY>.0001471</ECCENTRICITY><INCLINATION>45.0075</INCLINATION><RA_OF_ASC_NODE>177.4028</RA_OF_ASC_NODE><ARG_OF_PERICENTER>309.3845</ARG_OF_PERICENTER><MEAN_ANOMALY>50.6872</MEAN_ANOMALY></meanElements><tleParameters><EPHEMERIS_TYPE>0</EPHEMERIS_TYPE><CLASSIFICATION_TYPE>U</CLASSIFICATION_TYPE><NORAD_CAT_ID>25475</NORAD_CAT_ID><ELEMENT_SET_NO>999</ELEMENT_SET_NO><REV_AT_EPOCH>35627</REV_AT_EPOCH><BSTAR>.16244E-2</BSTAR><MEAN_MOTION_DOT>.461E-4</MEAN_MOTION_DOT><MEAN_MOTION_DDOT>0</MEAN_MOTION_DDOT></tleParameters></data></segment></body></omm>
<omm id="CCSDS_OMM_VERS" version="2.0">
<header><CREATION_DATE/><ORIGINATOR/></header><body><segment><metadata><OBJECT_NAME>ORBCOMM FM22</OBJECT_NAME><OBJECT_ID>1998-053B</OBJECT_ID><CENTER_NAME>EARTH</CENTER_NAME><REF_FRAME>TEME</REF_FRAME><TIME_SYSTEM>UTC</TIME_SYSTEM><MEAN_ELEMENT_THEORY>SGP4</MEAN_ELEMENT_THEORY></metadata><data><meanElements><EPOCH>2024-09-05T04:59:10.616928</EPOCH><MEAN_MOTION>14.36490893</MEAN_MOTION><ECCENTRICITY>.0002125</ECCENTRICITY><INCLINATION>45.0069</INCLINATION><RA_OF_ASC_NODE>174.4929</RA_OF_ASC_NODE><ARG_OF_PERICENTER>263.2091</ARG_OF_PERICENTER><MEAN_ANOMALY>96.8515</MEAN_ANOMALY></meanElements><tleParameters><EPHEMERIS_TYPE>0</EPHEMERIS_TYPE><CLASSIFICATION_TYPE>U</CLASSIFICATION_TYPE><NORAD_CAT_ID>25476</NORAD_CAT_ID><ELEMENT_SET_NO>999</ELEMENT_SET_NO><REV_AT_EPOCH>35626</REV_AT_EPOCH><BSTAR>.20292E-2</BSTAR><MEAN_MOTION_DOT>.5872E-4</MEAN_MOTION_DOT><MEAN_MOTION_DDOT>0</MEAN_MOTION_DDOT></tleParameters></data></segment></body></omm>
<omm id="CCSDS_OMM_VERS" version="2.0">
<header><CREATION_DATE/><ORIGINATOR/></header><body><segment><metadata><OBJECT_NAME>ORBCOMM FM23</OBJECT_NAME><OBJECT_ID>1998-053C</OBJECT_ID><CENTER_NAME>EARTH</CENTER_NAME><REF_FRAME>TEME</REF_FRAME><TIME_SYSTEM>UTC</TIME_SYSTEM><MEAN_ELEMENT_THEORY>SGP4</MEAN_ELEMENT_THEORY></metadata><data><meanElements><EPOCH>2024-09-05T05:34:23.733696</EPOCH><MEAN_MOTION>14.35895881</MEAN_MOTION><ECCENTRICITY>.0001813</ECCENTRICITY><INCLINATION>45.0074</INCLINATION><RA_OF_ASC_NODE>180.0010</RA_OF_ASC_NODE><ARG_OF_PERICENTER>276.7749</ARG_OF_PERICENTER><MEAN_ANOMALY>83.2892</MEAN_ANOMALY></meanElements><tleParameters><EPHEMERIS_TYPE>0</EPHEMERIS_TYPE><CLASSIFICATION_TYPE>U</CLASSIFICATION_TYPE><NORAD_CAT_ID>25477</NORAD_CAT_ID><ELEMENT_SET_NO>999</ELEMENT_SET_NO><REV_AT_EPOCH>35641</REV_AT_EPOCH><BSTAR>.1563E-2</BSTAR><MEAN_MOTION_DOT>.4434E-4</MEAN_MOTION_DOT><MEAN_MOTION_DDOT>0</MEAN_MOTION_DDOT></tleParameters></data></segment></body></omm>

</ndm>
