ORBCOMM FM20            
1 25416U 98046D   24249.07075593  .00004156  00000+0  14728-2 0  9991
2 25416  44.9933  90.1946 0000381 172.5155 187.5698 14.35735060363267
ORBCOMM FM16            
1 25417U 98046E   24249.84632161  .00005805  00000+0  19898-2 0  9992
2 25417  44.9930  81.3341 0003151 296.5222  63.5302 14.36909304363547
ORBCOMM FM15            
1 25418U 98046F   24249.06174176  .00005044  00000+0  17463-2 0  9995
2 25418  44.9960  89.3978 0002792 297.7938  62.2627 14.36597569363218
ORBCOMM FM14            
1 25419U 98046G   24249.83522519  .00005136  00000+0  17688-2 0  9990
2 25419  44.9951  84.6657 0001792 277.6482  82.4162 14.36830814363504
ORBCOMM FM13            
1 25420U 98046H   24249.80555912  .00004759  00000+0  16705-2 0  9991
2 25420  44.9966  90.3929 0004079 281.9377  78.1013 14.35989928363462
ORBCOMM FM21            
1 25475U 98053A   24249.27736880  .00004610  00000+0  16244-2 0  9999
2 25475  45.0075 177.4028 0001471 309.3845  50.6872 14.35851466356274
ORBCOMM FM22            
1 25476U 98053B   24249.20776177  .00005872  00000+0  20292-2 0  9995
2 25476  45.0069 174.4929 0002125 263.2091  96.8515 14.36490893356262
ORBCOMM FM23            
1 25477U 98053C   24249.23221914  .00004434  00000+0  15630-2 0  9996
2 25477  45.0074 180.0010 0001813 276.7749  83.2892 14.35895881356415
